IRIDIUM 921 [-]         
1 24873U 97034E   23286.05682136  .00029309  00000+0  11272-2 0  9996
2 24873  86.3880  49.4839 0006731 109.2578 250.9397 15.26250073437476
IRIDIUM 26 [-]          
1 24903U 97043A   23285.73931688  .00000918  00000+0  30919-3 0  9998
2 24903  86.4023   7.9910 0002057  87.8696 272.2737 14.36036767368670
IRIDIUM 22 [-]          
1 24907U 97043E   23285.74379503  .00000950  00000+0  32724-3 0  9997
2 24907  86.4027  11.0267 0002217  92.4491 267.6959 14.34944447368778
DUMMY MASS 1 [-]        
1 24925U 97048A   23286.12369988  .00001201  00000+0  13467-3 0  9994
2 24925  86.3343  58.5473 0008019 142.5078 217.6707 14.85870088414309
DUMMY MASS 2 [-]        
1 24926U 97048B   23285.91817907  .00001215  00000+0  13714-3 0  9990
2 24926  86.3340  60.1423 0008375 154.0557 206.1088 14.85630650413826
IRIDIUM 29 [-]          
1 24944U 97051A   23285.75565750  .00000831  00000+0  28301-3 0  9993
2 24944  86.3990  40.9929 0002356  92.8884 267.2582 14.35402599365242
IRIDIUM 33 [-]          
1 24946U 97051C   23285.83633061  .00000787  00000+0  27441-3 0  9999
2 24946  86.3907  40.2353 0005812 282.6125  77.4421 14.34140924364818
IRIDIUM 28 [-]          
1 24948U 97051E   23285.85338778  .00001132  00000+0  38070-3 0  9995
2 24948  86.3999  38.8208 0001740  86.5063 273.6333 14.36336054365772
